[
    {
        "OBJECT_NAME": "BEIDOU-2 G5",
        "OBJECT_ID": "2012-008A",
        "EPOCH": "2026-07-22T15:01:18.695712",
        "MEAN_MOTION": 1.00273248,
        "ECCENTRICITY": 0.00070816,
        "INCLINATION": 3.6601,
        "RA_OF_ASC_NODE": 69.4735,
        "ARG_OF_PERICENTER": 271.3589,
        "MEAN_ANOMALY": 243.5281,
        "EPHEMERIS_TYPE": 0,
        "CLASSIFICATION_TYPE": "U",
        "NORAD_CAT_ID": 38091,
        "ELEMENT_SET_NO": 999,
        "REV_AT_EPOCH": 5272,
        "BSTAR": 0,
        "MEAN_MOTION_DOT": 5.8e-07,
        "MEAN_MOTION_DDOT": 0
    },
    {
        "OBJECT_NAME": "BEIDOU-2 M3",
        "OBJECT_ID": "2012-018A",
        "EPOCH": "2026-07-21T00:24:35.481312",
        "MEAN_MOTION": 1.8622971,
        "ECCENTRICITY": 0.00211095,
        "INCLINATION": 55.7262,
        "RA_OF_ASC_NODE": 303.7342,
        "ARG_OF_PERICENTER": 272.1021,
        "MEAN_ANOMALY": 87.687,
        "EPHEMERIS_TYPE": 0,
        "CLASSIFICATION_TYPE": "U",
        "NORAD_CAT_ID": 38250,
        "ELEMENT_SET_NO": 999,
        "REV_AT_EPOCH": 9657,
        "BSTAR": 0,
        "MEAN_MOTION_DOT": -1.03e-06,
        "MEAN_MOTION_DDOT": 0
    },
    {
        "OBJECT_NAME": "BEIDOU-2 M4",
        "OBJECT_ID": "2012-018B",
        "EPOCH": "2026-07-20T22:47:10.972320",
        "MEAN_MOTION": 1.86229353,
        "ECCENTRICITY": 0.00122504,
        "INCLINATION": 55.6263,
        "RA_OF_ASC_NODE": 302.9476,
        "ARG_OF_PERICENTER": 272.0854,
        "MEAN_ANOMALY": 87.8062,
        "EPHEMERIS_TYPE": 0,
        "CLASSIFICATION_TYPE": "U",
        "NORAD_CAT_ID": 38251,
        "ELEMENT_SET_NO": 999,
        "REV_AT_EPOCH": 9657,
        "BSTAR": 0,
        "MEAN_MOTION_DOT": -1.02e-06,
        "MEAN_MOTION_DDOT": 0
    },
    {
        "OBJECT_NAME": "BEIDOU-2 M5",
        "OBJECT_ID": "2012-050A",
        "EPOCH": "2026-07-21T20:31:05.324736",
        "MEAN_MOTION": 1.86251668,
        "ECCENTRICITY": 0.00417689,
        "INCLINATION": 56.4706,
        "RA_OF_ASC_NODE": 61.7354,
        "ARG_OF_PERICENTER": 263.8468,
        "MEAN_ANOMALY": 95.7385,
        "EPHEMERIS_TYPE": 0,
        "CLASSIFICATION_TYPE": "U",
        "NORAD_CAT_ID": 38774,
        "ELEMENT_SET_NO": 999,
        "REV_AT_EPOCH": 7849,
        "BSTAR": 0,
        "MEAN_MOTION_DOT": -8e-07,
        "MEAN_MOTION_DDOT": 0
    },
    {
        "OBJECT_NAME": "BEIDOU-2 M6",
        "OBJECT_ID": "2012-050B",
        "EPOCH": "2026-07-20T02:55:43.188960",
        "MEAN_MOTION": 1.86230986,
        "ECCENTRICITY": 0.00127267,
        "INCLINATION": 56.5733,
        "RA_OF_ASC_NODE": 61.8055,
        "ARG_OF_PERICENTER": 2.2324,
        "MEAN_ANOMALY": 357.8361,
        "EPHEMERIS_TYPE": 0,
        "CLASSIFICATION_TYPE": "U",
        "NORAD_CAT_ID": 38775,
        "ELEMENT_SET_NO": 999,
        "REV_AT_EPOCH": 9392,
        "BSTAR": 0,
        "MEAN_MOTION_DOT": -7.7e-07,
        "MEAN_MOTION_DDOT": 0
    },
    {
        "OBJECT_NAME": "BEIDOU-2 G6",
        "OBJECT_ID": "2012-059A",
        "EPOCH": "2026-07-22T15:08:33.001728",
        "MEAN_MOTION": 1.00273179,
        "ECCENTRICITY": 0.00089561,
        "INCLINATION": 4.5091,
        "RA_OF_ASC_NODE": 73.1386,
        "ARG_OF_PERICENTER": 329.4301,
        "MEAN_ANOMALY": 208.9747,
        "EPHEMERIS_TYPE": 0,
        "CLASSIFICATION_TYPE": "U",
        "NORAD_CAT_ID": 38953,
        "ELEMENT_SET_NO": 999,
        "REV_AT_EPOCH": 5026,
        "BSTAR": 0,
        "MEAN_MOTION_DOT": -1.76e-06,
        "MEAN_MOTION_DDOT": 0
    },
    {
        "OBJECT_NAME": "BEIDOU-3S IGSO-1S",
        "OBJECT_ID": "2015-019A",
        "EPOCH": "2026-07-13T14:57:15.384672",
        "MEAN_MOTION": 1.00301762,
        "ECCENTRICITY": 0.00386582,
        "INCLINATION": 49.1434,
        "RA_OF_ASC_NODE": 295.1438,
        "ARG_OF_PERICENTER": 197.4315,
        "MEAN_ANOMALY": 114.4487,
        "EPHEMERIS_TYPE": 0,
        "CLASSIFICATION_TYPE": "U",
        "NORAD_CAT_ID": 40549,
        "ELEMENT_SET_NO": 999,
        "REV_AT_EPOCH": 4133,
        "BSTAR": 0,
        "MEAN_MOTION_DOT": -1.69e-06,
        "MEAN_MOTION_DDOT": 0
    },
    {
        "OBJECT_NAME": "BEIDOU-3S M2S",
        "OBJECT_ID": "2015-037A",
        "EPOCH": "2026-07-21T03:37:46.111296",
        "MEAN_MOTION": 1.86231942,
        "ECCENTRICITY": 0.00095989,
        "INCLINATION": 54.8384,
        "RA_OF_ASC_NODE": 300.8761,
        "ARG_OF_PERICENTER": 256.5759,
        "MEAN_ANOMALY": 103.3515,
        "EPHEMERIS_TYPE": 0,
        "CLASSIFICATION_TYPE": "U",
        "NORAD_CAT_ID": 40748,
        "ELEMENT_SET_NO": 999,
        "REV_AT_EPOCH": 7475,
        "BSTAR": 0,
        "MEAN_MOTION_DOT": -1e-06,
        "MEAN_MOTION_DDOT": 0
    },
    {
        "OBJECT_NAME": "BEIDOU-3S M1S",
        "OBJECT_ID": "2015-037B",
        "EPOCH": "2026-07-20T06:44:12.503328",
        "MEAN_MOTION": 1.86254901,
        "ECCENTRICITY": 0.00026146,
        "INCLINATION": 54.8358,
        "RA_OF_ASC_NODE": 300.8934,
        "ARG_OF_PERICENTER": 62.5237,
        "MEAN_ANOMALY": 297.5378,
        "EPHEMERIS_TYPE": 0,
        "CLASSIFICATION_TYPE": "U",
        "NORAD_CAT_ID": 40749,
        "ELEMENT_SET_NO": 999,
        "REV_AT_EPOCH": 7474,
        "BSTAR": 0,
        "MEAN_MOTION_DOT": -9.9e-07,
        "MEAN_MOTION_DDOT": 0
    },
    {
        "OBJECT_NAME": "BEIDOU-3S IGSO-2S",
        "OBJECT_ID": "2015-053A",
        "EPOCH": "2026-07-22T15:10:47.786592",
        "MEAN_MOTION": 1.00252107,
        "ECCENTRICITY": 0.0065894,
        "INCLINATION": 49.1658,
        "RA_OF_ASC_NODE": 258.3562,
        "ARG_OF_PERICENTER": 193.8013,
        "MEAN_ANOMALY": 168.7106,
        "EPHEMERIS_TYPE": 0,
        "CLASSIFICATION_TYPE": "U",
        "NORAD_CAT_ID": 40938,
        "ELEMENT_SET_NO": 999,
        "REV_AT_EPOCH": 3971,
        "BSTAR": 0,
        "MEAN_MOTION_DOT": -8.9e-07,
        "MEAN_MOTION_DDOT": 0
    },
    {
        "OBJECT_NAME": "BEIDOU-3S M3S",
        "OBJECT_ID": "2016-006A",
        "EPOCH": "2026-07-21T09:32:15.368640",
        "MEAN_MOTION": 1.86230801,
        "ECCENTRICITY": 0.00031477,
        "INCLINATION": 56.7365,
        "RA_OF_ASC_NODE": 62.5123,
        "ARG_OF_PERICENTER": 312.307,
        "MEAN_ANOMALY": 47.7284,
        "EPHEMERIS_TYPE": 0,
        "CLASSIFICATION_TYPE": "U",
        "NORAD_CAT_ID": 41315,
        "ELEMENT_SET_NO": 999,
        "REV_AT_EPOCH": 7123,
        "BSTAR": 0,
        "MEAN_MOTION_DOT": -7.9e-07,
        "MEAN_MOTION_DDOT": 0
    }
]
