{"epoch":1784762836,"count":18316,"objects":[{"id":"38091","name":"BEIDOU 11","type":"PAYLOAD","l1":"1 38091U 12008A   26203.62591083  .00000058  00000-0  00000-0 0  9992","l2":"2 38091   3.6601  69.4735 0007082 271.3589 243.5281  1.00273248 52723"},{"id":"38250","name":"BEIDOU 12","type":"PAYLOAD","l1":"1 38250U 12018A   26202.01707733 -.00000103  00000-0  00000-0 0  9995","l2":"2 38250  55.7262 303.7342 0021109 272.1021  87.6870  1.86229710 96576"},{"id":"38251","name":"BEIDOU 13","type":"PAYLOAD","l1":"1 38251U 12018B   26201.94943255 -.00000102  00000-0  00000-0 0  9997","l2":"2 38251  55.6263 302.9476 0012250 272.0854  87.8062  1.86229353 96574"},{"id":"38774","name":"BEIDOU 14","type":"PAYLOAD","l1":"1 38774U 12050A   26202.85492274 -.00000080  00000-0  00000-0 0  9999","l2":"2 38774  56.4706  61.7354 0041769 263.8468  95.7385  1.86251668 78497"},{"id":"38775","name":"BEIDOU 15","type":"PAYLOAD","l1":"1 38775U 12050B   26201.12202765 -.00000077  00000-0  00000-0 0  9999","l2":"2 38775  56.5733  61.8055 0012727   2.2324 357.8361  1.86230986 93927"},{"id":"38953","name":"BEIDOU 16","type":"PAYLOAD","l1":"1 38953U 12059A   26203.63093752 -.00000176  00000-0  00000-0 0  9998","l2":"2 38953   4.5091  73.1386 0008956 329.4301 208.9747  1.00273179 50267"},{"id":"40549","name":"BD-17","type":"PAYLOAD","l1":"1 40549U 15019A   26194.62309473 -.00000169  00000-0  00000-0 0  9991","l2":"2 40549  49.1434 295.1438 0038658 197.4315 114.4487  1.00301762 41331"},{"id":"40748","name":"BD-18","type":"PAYLOAD","l1":"1 40748U 15037A   26202.15122814 -.00000100  00000-0  00000-0 0  9997","l2":"2 40748  54.8384 300.8761 0009599 256.5759 103.3515  1.86231942 74750"},{"id":"40749","name":"BD-19","type":"PAYLOAD","l1":"1 40749U 15037B   26201.28070027 -.00000099  00000-0  00000-0 0  9996","l2":"2 40749  54.8358 300.8934 0002615  62.5237 297.5378  1.86254901 74744"},{"id":"40938","name":"BD-20","type":"PAYLOAD","l1":"1 40938U 15053A   26203.63249753 -.00000089  00000-0  00000-0 0  9998","l2":"2 40938  49.1658 258.3562 0065894 193.8013 168.7106  1.00252107 39714"},{"id":"41315","name":"BD-21","type":"PAYLOAD","l1":"1 41315U 16006A   26202.39740010 -.00000079  00000-0  00000-0 0  9990","l2":"2 41315  56.7365  62.5123 0003148 312.3070  47.7284  1.86230801 71233"}]}